"full_name","e","q","i","om","w","ad","tp_cal","per_y","class","data_arc","condition_code","n_obs_used","two_body","A1","A2","A3","DT","a","n_del_obs_used","n_dop_obs_used","H"
"     C/2008 C8 (SOHO)",1.0000,0.008,138.74,334.80,56.72,,2008-02-16.0,,PAR,1,,22,T,,,,,,,,
"     C/2008 C9 (SOHO)",1.0000,0.063,74.32,335.76,38.03,,2008-02-15.2,,PAR,0,,8,T,,,,,,,,
"     C/2008 D1 (STEREO)",1.0000,0.005,140.28,15.82,99.09,,2008-02-17.7,,PAR,1,,7,T,,,,,,,,
"     C/2008 D2 (STEREO)",1.0000,0.005,143.49,11.17,90.43,,2008-02-20.5,,PAR,0,,13,T,,,,,,,,
"     C/2008 D3 (STEREO)",1.0000,0.005,143.99,358.79,78.91,,2008-02-22.3,,PAR,2,,52,T,,,,,,,,
"     C/2008 D4 (STEREO)",1.0000,0.005,145.98,15.67,77.24,,2008-02-21.7,,PAR,1,,8,T,,,,,,,,
"     C/2008 D5 (SOHO)",1.0000,0.005,142.25,345.67,70.33,,2008-02-19.5,,PAR,0,,11,T,,,,,,,,
"     C/2008 D6 (SOHO)",1.0000,0.034,70.85,72.50,55.43,,2008-02-19.2,,PAR,0,,11,T,,,,,,,,
"     C/2008 D7 (SOHO)",1.0000,0.006,144.18,6.40,88.12,,2008-02-26.2,,PAR,1,,40,T,,,,,,,,
"     C/2008 D8 (SOHO)",1.0000,0.005,144.27,6.20,90.06,,2008-02-25.0,,PAR,0,,15,T,,,,,,,,
"     C/2008 D9 (SOHO)",1.0000,0.004,143.75,359.83,80.23,,2008-03-01.1,,PAR,1,,56,T,,,,,,,,
"     C/2008 E1 (Catalina)",0.5481,4.829,35.04,189.02,269.99,16.54,2008-08-11.8,34.9,JFc,924,3,258,,,,,,10.69,,,
"     C/2008 E3 (Garradd)",0.9985,5.531,105.08,105.67,218.09,7320.46,2008-08-02.2,2.22e+05,COM,768,,109,,,,,,3663,,,
"     C/2008 E4 (SOHO)",1.0000,0.050,13.13,51.85,50.61,,2008-03-03.0,,PAR,0,,13,T,,,,,,,,
"     C/2008 E5 (STEREO)",1.0000,0.005,144.84,7.48,89.02,,2008-03-06.8,,PAR,0,,11,T,,,,,,,,
"     C/2008 E6 (STEREO)",1.0000,0.005,143.75,356.83,74.07,,2008-03-16.2,,PAR,0,,9,T,,,,,,,,
"     C/2008 E7 (SOHO)",1.0000,0.055,143.28,12.08,125.74,,2008-03-05.7,,PAR,2,,94,T,,,,,,,,
"     C/2008 E8 (SOHO)",1.0000,0.006,144.00,357.48,72.79,,2008-03-07.7,,PAR,1,,34,T,,,,,,,,
"     C/2008 E9 (SOHO)",1.0000,0.006,143.94,359.10,76.41,,2008-03-12.6,,PAR,1,,23,T,,,,,,,,
"     C/2008 F1 (SOHO)",1.0000,0.032,66.71,94.56,46.12,,2008-03-20.0,,PAR,1,,10,T,,,,,,,,
"     C/2008 FK75 (Lemmon-Siding Spring)",1.0027,4.511,61.18,218.27,80.42,,2010-09-29.2,,HYP,2046,,3622,,,,,,-1669,,,
"     C/2008 G1 (Gibbs)",0.9891,3.990,72.86,215.92,63.70,726.23,2009-01-11.9,6.98e+03,COM,142,,166,,,,,,365.1,,,
"     C/2008 G3 (SOHO)",1.0000,0.005,144.49,355.34,74.07,,2008-04-02.3,,PAR,1,,7,T,,,,,,,,
"     C/2008 G4 (SOHO)",1.0000,0.005,143.66,359.06,78.00,,2008-04-09.8,,PAR,0,,10,T,,,,,,,,
"     C/2008 G5 (SOHO)",1.0000,0.005,143.60,358.49,77.10,,2008-04-10.3,,PAR,0,,5,T,,,,,,,,
"     C/2008 G6 (SOHO)",1.0000,0.048,14.35,49.13,57.03,,2008-04-13.5,,PAR,1,,10,T,,,,,,,,
"     C/2008 H1 (LINEAR)",0.9466,2.760,75.49,34.63,96.04,100.60,2008-03-16.4,372,COM,98,4,252,,,,,,51.68,,,
"     C/2008 H2 (SOHO)",1.0000,0.005,145.29,0.99,84.66,,2008-04-17.0,,PAR,0,,10,T,,,,,,,,
"     C/2008 H3 (SOHO)",1.0000,0.004,144.76,2.69,82.60,,2008-04-17.2,,PAR,1,,20,T,,,,,,,,
"     C/2008 H4 (SOHO)",1.0000,0.037,73.46,72.35,58.57,,2008-04-18.5,,PAR,0,,10,T,,,,,,,,
"     C/2008 H5 (SOHO)",1.0000,0.005,144.96,3.01,83.52,,2008-04-26.1,,PAR,0,,22,T,,,,,,,,
"     C/2008 H6 (SOHO)",1.0000,0.009,142.03,9.59,79.66,,2008-04-27.6,,PAR,0,,7,T,,,,,,,,
"     C/2008 H7 (SOHO)",1.0000,0.008,142.60,10.46,82.98,,2008-04-30.3,,PAR,0,,7,T,,,,,,,,
"     C/2008 H8 (SOHO)",1.0000,0.005,144.78,358.71,78.84,,2008-05-01.2,,PAR,0,,6,T,,,,,,,,
"     C/2008 H9 (SOHO)",1.0000,0.005,145.95,356.87,78.83,,2008-04-22.0,,PAR,0,,8,T,,,,,,,,
"     C/2008 J1 (Boattini)",0.9896,1.724,61.78,273.42,68.12,330.39,2008-07-13.2,2.14e+03,COM,337,,1557,,,,,,166.1,,,
"     C/2008 J4 (McNaught)",1.0077,0.449,87.48,289.37,93.06,,2008-06-19.3,,HYP,15,,22,,,,,,-58.24,,,
"     C/2008 J5 (Garradd)",0.9729,1.964,93.27,287.08,313.38,142.91,2008-04-01.0,617,COM,107,4,128,,,,,,72.44,,,
"     C/2008 J6 (Hill)",1.0021,2.004,44.99,298.18,10.70,,2008-04-10.9,,HYP,471,,385,,,,,,-937.2,,,
"     C/2008 J7 (SOHO)",1.0000,0.009,145.05,347.71,71.48,,2008-05-02.0,,PAR,0,,12,T,,,,,,,,
"     C/2008 J8 (SOHO)",1.0000,0.007,144.52,4.75,83.91,,2008-05-05.5,,PAR,0,,10,T,,,,,,,,
"     C/2008 J9 (SOHO)",1.0000,0.005,143.21,1.11,79.14,,2008-05-05.7,,PAR,0,,10,T,,,,,,,,
"     C/2008 J10 (SOHO)",1.0000,0.037,72.18,73.31,56.96,,2008-05-07.2,,PAR,1,,21,T,,,,,,,,
"     C/2008 J11 (SOHO)",1.0000,0.005,144.89,6.86,84.81,,2008-05-08.0,,PAR,0,,7,T,,,,,,,,
"     C/2008 J12 (SOHO)",1.0000,0.038,70.94,71.57,57.28,,2008-05-08.2,,PAR,1,,32,T,,,,,,,,
"     C/2008 J13 (SOHO)",1.0000,0.009,138.55,20.06,86.38,,2008-05-12.5,,PAR,0,,11,T,,,,,,,,
"     C/2008 J14 (SOHO)",1.0000,0.004,144.10,356.81,77.57,,2008-05-14.4,,PAR,2,,52,T,,,,,,,,
"     C/2008 J15 (SOHO)",1.0000,0.005,144.85,3.15,83.62,,2008-05-13.4,,PAR,0,,10,T,,,,,,,,
"     C/2008 J16 (SOHO)",1.0000,0.005,145.09,352.07,73.47,,2008-05-14.7,,PAR,0,,7,T,,,,,,,,
"     C/2008 L3 (Hill)",0.9938,2.011,100.20,24.19,101.81,642.71,2008-04-22.4,5.79e+03,COM,51,,82,,,,,,322.4,,,
"     C/2008 N1 (Holmes)",0.9971,2.784,115.52,357.47,100.81,1943.50,2009-09-25.8,3.04e+04,COM,729,,1522,,,,,,973.1,,,
"     P/2008 O3 (Boattini)",0.6950,2.497,32.27,47.57,340.98,13.88,2008-06-03.0,23.4,JFc,73,6,54,,,,,,8.187,,,
"     C/2008 P1 (Garradd)",1.0017,3.896,64.31,357.68,11.87,,2009-07-22.9,,HYP,905,,1345,,,,,,-2321,,,
"     C/2008 Q1 (Maticic)",0.9950,2.959,118.63,9.31,104.48,1184.70,2008-12-30.1,1.45e+04,COM,600,,1021,,,,,,593.8,,,
"     C/2008 Q3 (Garradd)",0.9998,1.798,140.71,219.73,340.86,17785.10,2009-06-23.0,8.39e+05,COM,431,,701,,,,,,8893,,,
"     C/2008 R3 (LINEAR)",0.8964,1.909,43.24,270.55,84.16,34.93,2008-11-22.4,79,HTC,176,4,517,,,,,,18.42,,,
"     C/2008 S3 (Boattini)",1.0011,8.018,162.70,54.94,39.94,,2011-06-07.0,,HYP,3124,,1909,,,,,,-7441,,,
"     C/2008 T2 (Cardinal)",1.0001,1.202,56.30,309.68,215.87,,2009-06-13.2,,HYP,338,,1309,,,,,,-1.103e+04,,,
"     C/2008 X3 (LINEAR)",0.9565,1.902,66.47,337.75,140.80,85.62,2008-10-10.5,290,COM,90,4,127,,,,,,43.76,,,
"     P/2008 Y3 (McNaught)",0.4477,4.434,38.81,262.93,238.28,11.62,2009-01-11.9,22.7,JFc,927,3,164,,,,,,8.028,,,
"     P/2008 Y12 (SOHO)",0.9788,0.065,23.35,312.57,146.62,6.09,2008-12-22.4,5.4,JFC,1973,4,76,,,,,,3.078,,,
"     P/2009 B1 (Boattini)",0.6372,2.427,22.23,297.44,128.59,10.95,2009-02-06.2,17.3,JFc,131,5,111,,,,,,6.688,,,
"     C/2009 B2 (LINEAR)",0.9443,2.328,156.87,18.81,192.50,81.22,2009-03-07.3,270,COM,100,5,187,,,,,,41.77,,,
"     C/2009 E1 (Itagaki)",0.9851,0.600,127.45,105.96,48.96,79.75,2009-04-07.9,255,COM,158,2,562,,,,,,40.18,,,
"     C/2009 F1 (Larson)",0.9827,1.831,171.38,357.95,219.58,210.11,2009-06-25.8,1.09e+03,COM,68,,159,,,,,,106,,,
"     C/2009 F2 (McNaught)",0.9830,5.875,59.37,214.06,336.34,686.40,2009-11-14.1,6.44e+03,COM,1222,,363,,,,,,346.1,,,
"     C/2009 F4 (McNaught)",1.0018,5.455,79.35,53.58,260.38,,2011-12-31.8,,HYP,2164,,1187,,,,,,-3013,,,
"     C/2009 F5 (McNaught)",0.9720,2.245,84.99,219.06,297.37,158.09,2008-11-04.8,718,COM,148,4,444,,,,,,80.17,,,
"     C/2009 F6 (Yi-SWAN)",0.9975,1.274,85.76,278.68,129.77,1023.93,2009-05-07.4,1.16e+04,COM,330,,487,,,,,,512.6,,,
"     C/2009 G1 (STEREO)",0.9977,1.129,108.31,120.63,175.44,971.29,2009-04-16.5,1.07e+04,COM,113,,119,,,,,,486.2,,,
"     C/2009 K2 (Catalina)",0.9978,3.246,66.82,123.81,147.69,2919.69,2010-02-07.4,5.59e+04,COM,424,,665,,,,,,1461,,,
"     C/2009 K3 (Beshore)",1.0000,2.869,144.42,0.73,268.40,,2010-12-16.9,,PAR,2,,20,T,,,,,,,,
"     C/2009 K4 (Gibbs)",0.9625,1.549,34.82,30.13,127.47,81.12,2009-06-19.3,266,COM,60,6,125,,,,,,41.33,,,
"     C/2009 K5 (McNaught)",1.0008,1.422,103.88,257.86,66.17,,2010-04-30.0,,HYP,913,,2488,,,,,,-1696,,,
"     C/2009 O2 (Catalina)",0.9975,0.696,107.96,310.23,133.40,555.53,2010-03-24.4,4.64e+03,COM,247,,281,,,,,,278.1,,,
"     P/2009 O3 (Hill)",0.6869,2.450,16.22,183.76,154.55,13.20,2009-05-18.6,21.9,JFc,163,4,328,,,,,,7.824,,,
"     C/2009 O4 (Hill)",1.0013,2.564,95.82,172.94,223.73,,2010-01-01.2,,HYP,137,,764,,,,,,-1919,,,
"     C/2009 P1 (Garradd)",1.0010,1.551,106.18,326.00,90.75,,2011-12-23.6,,HYP,1978,,9044,,2.0e-08,-1.0e-09,,,-1555,,,
"     C/2009 P2 (Boattini)",1.0015,6.544,163.45,60.36,76.03,,2010-02-10.5,,HYP,1060,,507,,,,,,-4253,,,
"     P/2009 Q5 (McNaught)",0.6091,2.919,40.90,160.14,209.27,12.01,2009-09-08.5,20.4,JFc,171,3,331,,,,,,7.465,,,
"     C/2009 R1 (McNaught)",1.0004,0.405,77.03,322.62,130.69,,2010-07-02.6,,HYP,315,,751,,,,,,-980.4,,,
"     C/2009 S3 (Lemmon)",1.0014,6.475,60.38,225.13,129.76,,2011-12-11.2,,HYP,1586,,278,,,,,,-4562,,,
"     C/2009 T1 (McNaught)",0.9983,6.220,89.89,54.41,282.53,7344.02,2009-10-08.2,2.23e+05,COM,725,,141,,,,,,3675,,,
"     P/2009 T2 (La Sagra)",0.7690,1.755,28.11,215.99,215.47,13.44,2010-01-12.8,20.9,JFc,182,3,882,,,,,,7.596,,,
"     C/2009 T3 (LINEAR)",0.9995,2.281,148.74,60.09,32.45,8619.64,2010-01-12.0,2.83e+05,COM,301,,401,,,,,,4311,,,
"     C/2009 U1 (Garradd)",1.0150,5.383,91.24,43.39,269.04,,2008-10-07.9,,HYP,2,,10,T,,,,,-358.6,,,
"     C/2009 U3 (Hill)",0.9916,1.414,51.26,49.32,77.70,334.41,2010-03-20.2,2.18e+03,COM,241,,602,,,,,,167.9,,,
"     C/2009 U5 (Grauer)",0.9994,6.094,25.47,121.17,23.81,21155.24,2010-06-22.4,1.09e+06,JFc,526,,182,,,,,,1.058e+04,,,
"     C/2009 UG89 (Lemmon)",1.0080,3.931,130.10,321.01,60.65,,2010-12-16.2,,HYP,918,,966,,,,,,-493.9,,,
"     C/2009 W2 (Boattini)",0.9996,6.907,164.49,199.58,121.33,30958.68,2010-05-01.6,1.93e+06,COM,686,,93,,,,,,1.548e+04,,,
"     P/2009 WX51 (Catalina)",0.7403,0.800,9.59,31.76,118.02,5.36,2010-01-31.0,5.41,JFc,146,4,113,,,,,,3.08,,,
"     C/2009 Y1 (Catalina)",0.9933,2.520,107.32,160.28,127.39,748.72,2011-01-28.9,7.28e+03,COM,736,,1677,,,,,,375.6,,,
"     P/2009 Y2 (Kowalski)",0.6405,2.339,29.93,262.13,171.96,10.68,2010-03-30.6,16.6,JFc,103,5,178,,,,,,6.507,,,
"     P/2010 A3 (Hill)",0.7322,1.622,15.03,64.83,41.28,10.49,2010-04-03.6,14.9,JFc,241,4,397,,,,,,6.057,,,
"     C/2010 A4 (Siding Spring)",0.9906,2.738,96.73,346.69,271.69,581.43,2010-10-08.7,4.99e+03,COM,655,,140,,,,,,292.1,,,
